STARLINK-30822          
1 58193U 23167U   26068.56274316  .00001074  00000+0  49710-4 0  9997
2 58193  43.0017 144.2908 0000495 333.5405  26.5421 15.26729916130969
TRANSPORTER-14 OBJECT AC
1 64554U 25135AC  26068.82113864  .00024574  00000+0  93234-3 0  9990
2 64554  97.4518 185.7428 0001008 268.0523  92.0600 15.26845403 39827
